NORAD_CAT_ID,OBJECT_NAME,OBJECT_TYPE,EPOCH,MEAN_MOTION,ECCENTRICITY,INCLINATION,RA_OF_ASC_NODE,ARG_OF_PERICENTER,MEAN_ANOMALY,BSTAR,MEAN_MOTION_DOT,MEAN_MOTION_DDOT,TLE_LINE0,TLE_LINE1,TLE_LINE2,SEMIMAJOR_AXIS,PERIOD,APOGEE,PERIGEE,DECAYED
49157.0,STARLINK-3051,PAYLOAD,2024-01-08 14:47:39,14.98331456,0.0002688,70.0004,109.0268,257.5636,102.5222,2.0775e-05,1.55e-06,0.0,0 STARLINK-3051,1 49157U 21082AD  24008.61642511  .00000155  00000-0  20775-4 0  9995,2 49157  70.0004 109.0268 0002688 257.5636 102.5222 14.98331456129070,6950.188,96.107,573.922,570.185,0.0
49157.0,STARLINK-3051,PAYLOAD,2024-01-08 16:23:47,14.98331495,0.000271,70.0003,108.8582,259.4509,100.6345,1.9499e-05,1.4e-06,0.0,0 STARLINK-3051,1 49157U 21082AD  24008.68318511  .00000140  00000-0  19499-4 0  9997,2 49157  70.0003 108.8582 0002710 259.4509 100.6345 14.98331495129080,6950.188,96.107,573.937,570.17,0.0
49157.0,STARLINK-3051,PAYLOAD,2024-01-09 11:37:23,14.98332392,0.0002765,70.0003,106.8384,262.0267,98.0578,2.4191e-05,1.96e-06,0.0,0 STARLINK-3051,1 49157U 21082AD  24009.48430317  .00000196  00000-0  24191-4 0  9991,2 49157  70.0003 106.8384 0002765 262.0267  98.0578 14.98332392129208,6950.185,96.107,573.972,570.129,0.0
49157.0,STARLINK-3051,PAYLOAD,2024-01-09 14:49:39,14.98346957,0.0002621,70.0005,106.502,259.9387,100.1477,-0.00016651,-2.08e-05,0.0,0 STARLINK-3051,1 49157U 21082AD  24009.61781817 -.00002080  00000-0 -16651-3 0  9997,2 49157  70.0005 106.5020 0002621 259.9387 100.1477 14.98346957129220,6950.14,96.106,573.827,570.184,0.0
49157.0,STARLINK-3051,PAYLOAD,2024-01-09 16:25:47,14.9833498,0.0002694,70.0005,106.3339,260.1384,99.9471,5.6396e-05,5.8e-06,0.0,0 STARLINK-3051,1 49157U 21082AD  24009.68458026  .00000580  00000-0  56396-4 0  9999,2 49157  70.0005 106.3339 0002694 260.1384  99.9471 14.98334980129235,6950.177,96.107,573.915,570.17,0.0
49157.0,STARLINK-3051,PAYLOAD,2024-01-10 11:39:24,14.98330919,0.0002566,70.0007,104.314,255.3307,104.7568,2.3101e-05,1.83e-06,0.0,0 STARLINK-3051,1 49157U 21082AD  24010.48570240  .00000183  00000-0  23101-4 0  9999,2 49157  70.0007 104.3140 0002566 255.3307 104.7568 14.98330919129357,6950.19,96.107,573.838,570.272,0.0
49157.0,STARLINK-3051,PAYLOAD,2024-01-11 11:41:25,14.98336971,0.0002441,70.0002,101.7876,264.0139,96.0742,2.4628e-05,2.01e-06,0.0,0 STARLINK-3051,1 49157U 21082AD  24011.48709675  .00000201  00000-0  24628-4 0  9992,2 49157  70.0002 101.7876 0002441 264.0139  96.0742 14.98336971129509,6950.171,96.107,573.733,570.34,0.0
49157.0,STARLINK-3051,PAYLOAD,2024-01-11 14:53:41,14.9833735,0.0002403,70.0005,101.451,265.3428,94.7456,7.3238e-05,7.81e-06,0.0,0 STARLINK-3051,1 49157U 21082AD  24011.62061483  .00000781  00000-0  73238-4 0  9990,2 49157  70.0005 101.4510 0002403 265.3428  94.7456 14.98337350129528,6950.17,96.107,573.705,570.365,0.0
49157.0,STARLINK-3051,PAYLOAD,2024-01-12 10:07:19,14.98321249,0.0003093,69.999,99.4306,265.129,94.9516,-0.00012741,-1.613e-05,0.0,0 STARLINK-3051,1 49157U 21082AD  24012.42174987 -.00001613  00000-0 -12741-3 0  9991,2 49157  69.9990  99.4306 0003093 265.1290  94.9516 14.98321249129640,6950.22,96.108,574.235,569.935,0.0
49157.0,STARLINK-3051,PAYLOAD,2024-01-12 13:19:35,14.98321902,0.0002888,70.0,99.0958,252.899,107.1852,-8.9271e-05,-1.158e-05,0.0,0 STARLINK-3051,1 49157U 21082AD  24012.55526945 -.00001158  00000-0 -89271-4 0  9997,2 49157  70.0000  99.0958 0002888 252.8990 107.1852 14.98321902129663,6950.218,96.108,574.09,570.076,0.0
49157.0,STARLINK-3051,PAYLOAD,2024-01-12 14:55:43,14.98319864,0.0002784,70.0001,98.9273,242.8525,117.235,-8.7832e-05,-1.14e-05,0.0,0 STARLINK-3051,1 49157U 21082AD  24012.62203082 -.00001140  00000-0 -87832-4 0  9991,2 49157  70.0001  98.9273 0002784 242.8525 117.2350 14.98319864129670,6950.224,96.108,574.024,570.154,0.0
49157.0,STARLINK-3051,PAYLOAD,2024-01-13 11:45:27,14.98333542,0.0003042,69.9991,96.7382,264.8962,95.1849,8.7141e-06,1.1e-07,0.0,0 STARLINK-3051,1 49157U 21082AD  24013.48990085  .00000011  00000-0  87141-5 0  9990,2 49157  69.9991  96.7382 0003042 264.8962  95.1849 14.98333542129800,6950.182,96.107,574.161,569.933,0.0
49157.0,STARLINK-3051,PAYLOAD,2024-01-13 13:21:35,14.98335155,0.000292,69.9998,96.571,258.473,101.6101,0.00011591,1.29e-05,0.0,0 STARLINK-3051,1 49157U 21082AD  24013.55665664  .00001290  00000-0  11591-3 0  9994,2 49157  69.9998  96.5710 0002920 258.4730 101.6101 14.98335155129813,6950.177,96.107,574.071,570.012,0.0
49157.0,STARLINK-3051,PAYLOAD,2024-01-13 14:57:43,14.98339512,0.0002996,69.9995,96.4015,264.5408,95.5409,7.2013e-05,7.67e-06,0.0,0 STARLINK-3051,1 49157U 21082AD  24013.62341499  .00000767  00000-0  72013-4 0  9994,2 49157  69.9995  96.4015 0002996 264.5408  95.5409 14.98339512129824,6950.163,96.106,574.111,569.946,0.0
49157.0,STARLINK-3051,PAYLOAD,2024-01-14 11:47:28,14.98323252,0.0002819,70.0003,94.2147,248.8847,111.2011,0.00013696,1.541e-05,0.0,0 STARLINK-3051,1 49157U 21082AD  24014.49130455  .00001541  00000-0  13696-3 0  9990,2 49157  70.0003  94.2147 0002819 248.8847 111.2011 14.98323252129958,6950.214,96.107,574.038,570.119,0.0
49157.0,STARLINK-3051,PAYLOAD,2024-01-14 13:23:36,14.98325528,0.0002792,70.0004,94.0466,247.3934,112.693,0.00016279,1.85e-05,0.0,0 STARLINK-3051,1 49157U 21082AD  24014.55806279  .00001850  00000-0  16279-3 0  9994,2 49157  70.0004  94.0466 0002792 247.3934 112.6930 14.98325528129966,6950.207,96.107,574.012,570.131,0.0
49157.0,STARLINK-3051,PAYLOAD,2024-01-14 14:59:44,14.98327101,0.000279,70.0006,93.8788,246.8167,113.2698,0.00017638,2.012e-05,0.0,0 STARLINK-3051,1 49157U 21082AD  24014.62482171  .00002012  00000-0  17638-3 0  9994,2 49157  70.0006  93.8788 0002790 246.8167 113.2698 14.98327101129970,6950.202,96.107,574.006,570.128,0.0
49157.0,STARLINK-3051,PAYLOAD,2024-01-15 11:49:29,14.98337365,0.0002661,70.0008,91.6907,245.8044,114.2837,5.1137e-05,5.17e-06,0.0,0 STARLINK-3051,1 49157U 21082AD  24015.49269700  .00000517  00000-0  51137-4 0  9992,2 49157  70.0008  91.6907 0002661 245.8044 114.2837 14.98337365130107,6950.17,96.107,573.885,570.186,0.0
49157.0,STARLINK-3051,PAYLOAD,2024-01-15 13:25:37,14.98337746,0.0002653,70.0008,91.5225,245.6292,114.459,5.4493e-05,5.57e-06,0.0,0 STARLINK-3051,1 49157U 21082AD  24015.55945626  .00000557  00000-0  54493-4 0  9999,2 49157  70.0008  91.5225 0002653 245.6292 114.4590 14.98337746130115,6950.169,96.107,573.878,570.19,0.0
49157.0,STARLINK-3051,PAYLOAD,2024-01-15 15:01:45,14.98338101,0.0002646,70.0008,91.3541,246.7642,113.3238,5.6998e-05,5.87e-06,0.0,0 STARLINK-3051,1 49157U 21082AD  24015.62621571  .00000587  00000-0  56998-4 0  9992,2 49157  70.0008  91.3541 0002646 246.7642 113.3238 14.98338101130121,6950.168,96.106,573.872,570.194,0.0
49157.0,STARLINK-3051,PAYLOAD,2024-01-16 03:50:50,14.98318769,0.0002437,70.0014,90.0081,249.0443,111.0455,0.0001609,1.827e-05,0.0,0 STARLINK-3051,1 49157U 21082AD  24016.16030321  .00001827  00000-0  16090-3 0  9995,2 49157  70.0014  90.0081 0002437 249.0443 111.0455 14.98318769130209,6950.228,96.108,573.786,570.399,0.0
49157.0,STARLINK-3051,PAYLOAD,2024-01-16 13:27:39,14.98314659,0.0002389,70.0011,88.9965,257.5237,102.5655,9.4717e-05,1.037e-05,0.0,0 STARLINK-3051,1 49157U 21082AD  24016.56087073  .00001037  00000-0  94717-4 0  9991,2 49157  70.0011  88.9965 0002389 257.5237 102.5655 14.98314659130261,6950.24,96.108,573.766,570.445,0.0
49157.0,STARLINK-3051,PAYLOAD,2024-01-16 15:03:47,14.98321856,0.0002002,70.0016,88.826,258.2049,101.8886,2.9471e-05,2.59e-06,0.0,0 STARLINK-3051,1 49157U 21082AD  24016.62762938  .00000259  00000-0  29471-4 0  9998,2 49157  70.0016  88.8260 0002002 258.2049 101.8886 14.98321856130270,6950.218,96.108,573.475,570.692,0.0
49157.0,STARLINK-3051,PAYLOAD,2024-01-17 11:53:31,14.98331677,0.000254,70.0002,86.6374,269.1583,90.9285,5.2188e-05,5.3e-06,0.0,0 STARLINK-3051,1 49157U 21082AD  24017.49550111  .00000530  00000-0  52188-4 0  9995,2 49157  70.0002  86.6374 0002540 269.1583  90.9285 14.98331677130406,6950.188,96.107,573.818,570.287,0.0
49157.0,STARLINK-3051,PAYLOAD,2024-01-17 15:05:47,14.98336397,0.0002718,70.0001,86.301,274.6861,85.3987,4.8088e-05,4.81e-06,0.0,0 STARLINK-3051,1 49157U 21082AD  24017.62901812  .00000481  00000-0  48088-4 0  9997,2 49157  70.0001  86.3010 0002718 274.6861  85.3987 14.98336397130429,6950.173,96.107,573.927,570.149,0.0
49157.0,STARLINK-3051,PAYLOAD,2024-01-18 11:55:32,14.98327055,0.0002708,69.9999,84.1127,270.377,89.7078,8.0708e-05,8.7e-06,0.0,0 STARLINK-3051,1 49157U 21082AD  24018.49690296  .00000870  00000-0  80708-4 0  9991,2 49157  69.9999  84.1127 0002708 270.3770  89.7078 14.98327055130552,6950.202,96.107,573.949,570.185,0.0
49157.0,STARLINK-3051,PAYLOAD,2024-01-18 13:31:40,14.98328611,0.0002701,70.0,83.9444,270.2631,89.8218,9.6833e-05,1.063e-05,0.0,0 STARLINK-3051,1 49157U 21082AD  24018.56366167  .00001063  00000-0  96833-4 0  9997,2 49157  70.0000  83.9444 0002701 270.2631  89.8218 14.98328611130562,6950.197,96.107,573.939,570.185,0.0
49157.0,STARLINK-3051,PAYLOAD,2024-01-19 11:57:32,14.98336013,0.0002786,69.9998,81.5883,268.4723,91.6117,3.437e-05,3.17e-06,0.0,0 STARLINK-3051,1 49157U 21082AD  24019.49829712  .00000317  00000-0  34370-4 0  9999,2 49157  69.9998  81.5883 0002786 268.4723  91.6117 14.98336013130700,6950.174,96.107,573.976,570.103,0.0
49157.0,STARLINK-3051,PAYLOAD,2024-01-19 13:33:40,14.98336429,0.0002817,69.9997,81.4199,270.6605,89.4231,3.6194e-05,3.39e-06,0.0,0 STARLINK-3051,1 49157U 21082AD  24019.56505647  .00000339  00000-0  36194-4 0  9995,2 49157  69.9997  81.4199 0002817 270.6605  89.4231 14.98336429130711,6950.173,96.107,573.996,570.08,0.0
49157.0,STARLINK-3051,PAYLOAD,2024-01-20 03:58:53,14.98327176,0.0002647,69.9999,79.9047,265.6665,94.4191,1.3642e-05,7e-07,0.0,0 STARLINK-3051,1 49157U 21082AD  24020.16590186  .00000070  00000-0  13642-4 0  9990,2 49157  69.9999  79.9047 0002647 265.6665  94.4191 14.98327176130808,6950.202,96.107,573.906,570.227,0.0
